$$SOE
2460721.500000000, A.D. 2025-Feb-15 00:00:00.0000, 2.622615617626280E+08, -1.513750865832238E+07, 7.340266565764397E+05,
2460728.500000000, A.D. 2025-Feb-22 00:00:00.0000, 2.650226707473608E+08, -5.520193207866694E+05, 2.276478892906235E+06,
2460735.500000000, A.D. 2025-Mar-01 00:00:00.0000, 2.670929019762782E+08, 1.403506570841565E+07, 3.813013932119744E+06,
2460742.500000000, A.D. 2025-Mar-08 00:00:00.0000, 2.684858375662087E+08, 2.858672031225996E+07, 5.339896783987520E+06,
2460749.500000000, A.D. 2025-Mar-15 00:00:00.0000, 2.692171613516339E+08, 4.306809415568969E+07, 6.853637231003955E+06,
2460756.500000000, A.D. 2025-Mar-22 00:00:00.0000, 2.693043475433741E+08, 5.744659078599233E+07, 8.350995436070282E+06,
2460763.500000000, A.D. 2025-Mar-29 00:00:00.0000, 2.687663634592499E+08, 7.169190369823326E+07, 9.828983213435661E+06,
2460770.500000000, A.D. 2025-Apr-05 00:00:00.0000, 2.676233908766997E+08, 8.577601854597095E+07, 1.128486175001106E+07,
2460777.500000000, A.D. 2025-Apr-12 00:00:00.0000, 2.658965671037463E+08, 9.967318677103627E+07, 1.271613652652311E+07,
2460784.500000000, A.D. 2025-Apr-19 00:00:00.0000, 2.636077475187914E+08, 1.133598748435706E+08, 1.412054992859854E+07,
2460791.500000000, A.D. 2025-Apr-26 00:00:00.0000, 2.607792908495501E+08, 1.268146937203468E+08, 1.549607201563991E+07,
2460798.500000000, A.D. 2025-May-03 00:00:00.0000, 2.574338675240664E+08, 1.400183129749741E+08, 1.684088990190359E+07,
2460805.500000000, A.D. 2025-May-10 00:00:00.0000, 2.535942907197352E+08, 1.529533635944808E+08, 1.815339615900216E+07,
2460812.500000000, A.D. 2025-May-17 00:00:00.0000, 2.492833692694507E+08, 1.656043329032008E+08, 1.943217658980069E+07,
2460819.500000000, A.D. 2025-May-24 00:00:00.0000, 2.445237813787186E+08, 1.779574545712604E+08, 2.067599765615626E+07,
2460826.500000000, A.D. 2025-May-31 00:00:00.0000, 2.393379681234818E+08, 1.900005965521028E+08, 2.188379379864308E+07,
2460833.500000000, A.D. 2025-Jun-07 00:00:00.0000, 2.337480447371176E+08, 2.017231502321638E+08, 2.305465498494057E+07,
2460840.500000000, A.D. 2025-Jun-14 00:00:00.0000, 2.277757256596421E+08, 2.131159218034320E+08, 2.418781480867508E+07,
2460847.500000000, A.D. 2025-Jun-21 00:00:00.0000, 2.214422629224002E+08, 2.241710239175246E+08, 2.528263888530919E+07,
2460854.500000000, A.D. 2025-Jun-28 00:00:00.0000, 2.147683994028047E+08, 2.348817703830828E+08, 2.633861349228832E+07,
2460861.500000000, A.D. 2025-Jul-05 00:00:00.0000, 2.077743338981281E+08, 2.452425767829177E+08, 2.735533482947002E+07,
2460868.500000000, A.D. 2025-Jul-12 00:00:00.0000, 2.004796953913492E+08, 2.552488667040294E+08, 2.833249898257919E+07,
2460875.500000000, A.D. 2025-Jul-19 00:00:00.0000, 1.929035253771250E+08, 2.648969833161292E+08, 2.926989254638124E+07,
2460882.500000000, A.D. 2025-Jul-26 00:00:00.0000, 1.850642672540381E+08, 2.741841063983880E+08, 3.016738388978250E+07,
2460889.500000000, A.D. 2025-Aug-02 00:00:00.0000, 1.769797617633683E+08, 2.831081748689922E+08, 3.102491505296870E+07,
2460896.500000000, A.D. 2025-Aug-09 00:00:00.0000, 1.686672475291228E+08, 2.916678147384621E+08, 3.184249425838509E+07,
2460903.500000000, A.D. 2025-Aug-16 00:00:00.0000, 1.601433659182085E+08, 2.998622722829953E+08, 3.262018900112383E+07,
2460910.500000000, A.D. 2025-Aug-23 00:00:00.0000, 1.514241697569743E+08, 3.076913522566705E+08, 3.335811966530734E+07,
2460917.500000000, A.D. 2025-Aug-30 00:00:00.0000, 1.425251355695825E+08, 3.151553616203896E+08, 3.405645366305281E+07,
2460924.500000000, A.D. 2025-Sep-06 00:00:00.0000, 1.334611773414931E+08, 3.222550595254558E+08, 3.471540027424033E+07,
2460931.500000000, A.D. 2025-Sep-13 00:00:00.0000, 1.242466596304422E+08, 3.289916107944362E+08, 3.533520610472549E+07,
2460938.500000000, A.D. 2025-Sep-20 00:00:00.0000, 1.148954128692216E+08, 3.353665409932219E+08, 3.591615070008191E+07,
2460945.500000000, A.D. 2025-Sep-27 00:00:00.0000, 1.054207515698973E+08, 3.413816959414771E+08, 3.645854244320123E+07,
2460952.500000000, A.D. 2025-Oct-04 00:00:00.0000, 9.583549311551236E+07, 3.470392059251512E+08, 3.696271493368931E+07,
2460959.500000000, A.D. 2025-Oct-11 00:00:00.0000, 8.615197651115046E+07, 3.523414533986566E+08, 3.742902377581146E+07,
2460966.500000000, A.D. 2025-Oct-18 00:00:00.0000, 7.638208116455509E+07, 3.572910436447434E+08, 3.785784369748098E+07,
2460973.500000000, A.D. 2025-Oct-25 00:00:00.0000, 6.653724565850780E+07, 3.618907781586860E+08, 3.824956596098897E+07,
2460980.500000000, A.D. 2025-Nov-01 00:00:00.0000, 5.662848640873405E+07, 3.661436305421817E+08, 3.860459603756946E+07,
2460987.500000000, A.D. 2025-Nov-08 00:00:00.0000, 4.666641612380558E+07, 3.700527246602061E+08, 3.892335151637559E+07,
2460994.500000000, A.D. 2025-Nov-15 00:00:00.0000, 3.666126212049941E+07, 3.736213148016722E+08, 3.920626020764728E+07,
2461001.500000000, A.D. 2025-Nov-22 00:00:00.0000, 2.662288482301371E+07, 3.768527678784459E+08, 3.945375840107274E+07,
2461008.500000000, A.D. 2025-Nov-29 00:00:00.0000, 1.656079623675720E+07, 3.797505486278256E+08, 3.966628936785056E+07,
2461015.500000000, A.D. 2025-Dec-06 00:00:00.0000, 6.484176080881569E+06, 3.823182075232089E+08, 3.984430228673062E+07,
2461022.500000000, A.D. 2025-Dec-13 00:00:00.0000, -3.598114016350765E+06, 3.845593678684262E+08, 3.998825126202291E+07,
2461029.500000000, A.D. 2025-Dec-20 00:00:00.0000, -1.367751479044475E+07, 3.864777129641465E+08, 4.009859418270519E+07,
2461036.500000000, A.D. 2025-Dec-27 00:00:00.0000, -2.374575316565508E+07, 3.880769758180944E+08, 4.017579171982142E+07,
2461043.500000000, A.D. 2026-Jan-03 00:00:00.0000, -3.379482709485323E+07, 3.893609306677909E+08, 4.022030653287870E+07,
2461050.500000000, A.D. 2026-Jan-10 00:00:00.0000, -4.381699130605920E+07, 3.903333855315828E+08, 4.023260260849985E+07,
2461057.500000000, A.D. 2026-Jan-17 00:00:00.0000, -5.380474372059263E+07, 3.909981756034906E+08, 4.021314469302741E+07,
2461064.500000000, A.D. 2026-Jan-24 00:00:00.0000, -6.375081245787240E+07, 3.913591574320622E+08, 4.016239780563653E+07,
2461071.500000000, A.D. 2026-Jan-31 00:00:00.0000, -7.364814339227214E+07, 3.914202038017724E+08, 4.008082682198986E+07,
2461078.500000000, A.D. 2026-Feb-07 00:00:00.0000, -8.348988818614995E+07, 3.911851991923157E+08, 3.996889611151519E+07,
2461085.500000000, A.D. 2026-Feb-14 00:00:00.0000, -9.326939252963008E+07, 3.906580357388231E+08, 3.982706919768965E+07,
2461092.500000000, A.D. 2026-Feb-21 00:00:00.0000, -1.029801841825655E+08, 3.898426102139599E+08, 3.965580844727111E+07,
2461099.500000000, A.D. 2026-Feb-28 00:00:00.0000, -1.126159618859755E+08, 3.887428231361036E+08, 3.945557497714138E+07,
2461106.500000000, A.D. 2026-Mar-07 00:00:00.0000, -1.221705871808063E+08, 3.873625780079588E+08, 3.922682880319852E+07,
2461113.500000000, A.D. 2026-Mar-14 00:00:00.0000, -1.316380763384536E+08, 3.857057783055025E+08, 3.897002878122199E+07,
2461120.500000000, A.D. 2026-Mar-21 00:00:00.0000, -1.410125906058635E+08, 3.837763250768603E+08, 3.868563240956345E+07,
2461127.500000000, A.D. 2026-Mar-28 00:00:00.0000, -1.502884267574320E+08, 3.815781161503269E+08, 3.837409575907561E+07,
2461134.500000000, A.D. 2026-Apr-04 00:00:00.0000, -1.594600085383113E+08, 3.791150459562626E+08, 3.803587350372770E+07,
2461141.500000000, A.D. 2026-Apr-11 00:00:00.0000, -1.685218787077583E+08, 3.763910055755760E+08, 3.767141899482751E+07,
2461148.500000000, A.D. 2026-Apr-18 00:00:00.0000, -1.774686915064969E+08, 3.734098829848540E+08, 3.728118436160213E+07,
2461155.500000000, A.D. 2026-Apr-25 00:00:00.0000, -1.862952054852288E+08, 3.701755634928706E+08, 3.686562063328460E+07,
2461162.500000000, A.D. 2026-May-02 00:00:00.0000, -1.949962766458938E+08, 3.666919303209299E+08, 3.642517787567510E+07,
2461169.500000000, A.D. 2026-May-09 00:00:00.0000, -2.035668517530095E+08, 3.629628652436119E+08, 3.596030532350652E+07,
2461176.500000000, A.D. 2026-May-16 00:00:00.0000, -2.120019614201522E+08, 3.589922494110753E+08, 3.547145148349671E+07,
2461183.500000000, A.D. 2026-May-23 00:00:00.0000, -2.202967129062163E+08, 3.547839653595557E+08, 3.495906428557615E+07,
2461190.500000000, A.D. 2026-May-30 00:00:00.0000, -2.284462846901818E+08, 3.503419005191665E+08, 3.442359149843863E+07,
2461197.500000000, A.D. 2026-Jun-06 00:00:00.0000, -2.364459231306431E+08, 3.456699489393103E+08, 3.386548117064652E+07,
2461204.500000000, A.D. 2026-Jun-13 00:00:00.0000, -2.442909375321139E+08, 3.407720114228642E+08, 3.328518177689683E+07,
2461211.500000000, A.D. 2026-Jun-20 00:00:00.0000, -2.519766941112380E+08, 3.356519969915116E+08, 3.268314235434042E+07,
2461218.500000000, A.D. 2026-Jun-27 00:00:00.0000, -2.594986105516556E+08, 3.303138253428239E+08, 3.205981275654848E+07,
2461225.500000000, A.D. 2026-Jul-04 00:00:00.0000, -2.668521511359628E+08, 3.247614295223359E+08, 3.141564396112907E+07,
2461232.500000000, A.D. 2026-Jul-11 00:00:00.0000, -2.740328221907381E+08, 3.189987586758316E+08, 3.075108839636256E+07,
2461239.500000000, A.D. 2026-Jul-18 00:00:00.0000, -2.810361677436460E+08, 3.130297809058690E+08, 3.006660028012282E+07,
2461246.500000000, A.D. 2026-Jul-25 00:00:00.0000, -2.878577653611408E+08, 3.068584862350204E+08, 2.936263596894872E+07,
2461253.500000000, A.D. 2026-Aug-01 00:00:00.0000, -2.944932221125692E+08, 3.004888896287666E+08, 2.863965430898382E+07,
2461260.500000000, A.D. 2026-Aug-08 00:00:00.0000, -3.009381704404982E+08, 2.939250340442936E+08, 2.789811696636945E+07,
2461267.500000000, A.D. 2026-Aug-15 00:00:00.0000, -3.071882635178931E+08, 2.871709939585378E+08, 2.713848873620649E+07,
2461274.500000000, A.D. 2026-Aug-22 00:00:00.0000, -3.132391708507115E+08, 2.802308806009018E+08, 2.636123800023201E+07,
2461281.500000000, A.D. 2026-Aug-29 00:00:00.0000, -3.190865764144735E+08, 2.731088475249468E+08, 2.556683743165025E+07,
2461288.500000000, A.D. 2026-Sep-05 00:00:00.0000, -3.247261771882231E+08, 2.658090936590299E+08, 2.475576451771931E+07,
$$EOE